[{"OBJECT_NAME":"BEIDOU-3 M26 (C48)","OBJECT_ID":"2023-207B","EPOCH":"2026-04-27T02:03:22.039200","MEAN_MOTION":1.86229693,"ECCENTRICITY":0.000496,"INCLINATION":55.712,"RA_OF_ASC_NODE":64.0127,"ARG_OF_PERICENTER":305.1993,"MEAN_ANOMALY":54.7237,"EPHEMERIS_TYPE":0,"CLASSIFICATION_TYPE":"U","NORAD_CAT_ID":58655,"ELEMENT_SET_NO":999,"REV_AT_EPOCH":1587,"BSTAR":0,"MEAN_MOTION_DOT":-4.8e-7,"MEAN_MOTION_DDOT":0},{"OBJECT_NAME":"BEIDOU-3 M25 (C47)","OBJECT_ID":"2024-168B","EPOCH":"2026-04-27T10:34:56.680320","MEAN_MOTION":1.86230124,"ECCENTRICITY":0.0003273,"INCLINATION":54.5193,"RA_OF_ASC_NODE":304.0043,"ARG_OF_PERICENTER":319.167,"MEAN_ANOMALY":36.12,"EPHEMERIS_TYPE":0,"CLASSIFICATION_TYPE":"U","NORAD_CAT_ID":61186,"ELEMENT_SET_NO":999,"REV_AT_EPOCH":1083,"BSTAR":0,"MEAN_MOTION_DOT":-6.6e-7,"MEAN_MOTION_DDOT":0},{"OBJECT_NAME":"BEIDOU-3 M27 (C49)","OBJECT_ID":"2024-168C","EPOCH":"2026-04-26T23:27:45.313056","MEAN_MOTION":1.86230201,"ECCENTRICITY":0.00026089,"INCLINATION":54.5152,"RA_OF_ASC_NODE":304.0035,"ARG_OF_PERICENTER":40.2618,"MEAN_ANOMALY":139.4025,"EPHEMERIS_TYPE":0,"CLASSIFICATION_TYPE":"U","NORAD_CAT_ID":61187,"ELEMENT_SET_NO":999,"REV_AT_EPOCH":830,"BSTAR":0,"MEAN_MOTION_DOT":-6.2e-7,"MEAN_MOTION_DDOT":0}]
