BEIDOU-3 M26 (C48)      
1 58655U 23207B   26117.08567175 -.00000048  00000+0  00000+0 0  9990
2 58655  55.7120  64.0127 0004960 305.1993  54.7237  1.86229693 15875
BEIDOU-3 M25 (C47)      
1 61186U 24168B   26117.44093380 -.00000066  00000+0  00000+0 0  9992
2 61186  54.5193 304.0043 0003273 319.1670  36.1200  1.86230124 10838
BEIDOU-3 M27 (C49)      
1 61187U 24168C   26116.97760779 -.00000062  00000+0  00000+0 0  9999
2 61187  54.5152 304.0035 0002608  40.2618 139.4025  1.86230201  8307
